{
  "type": "FeatureCollection",
  "features": [
    {
      "type": "Feature",
      "properties": {
        "norad_id": 35901,
        "name": "COSMOS 2251 DEB",
        "group": "cosmos-2251-debris",
        "lat": 69.77812438549633,
        "lon": 92.22180053725397,
        "alt_km": 541.0221453979248,
        "timestamp": "2025-12-03T20:47:58.622703+00:00",
        "meta_object_name": "COSMOS 2251 DEB",
        "meta_object_id": "1993-036AUQ",
        "meta_epoch": "2025-12-01T12:55:02.152704",
        "meta_mean_motion": 15.05425838,
        "meta_eccentricity": 0.00058343,
        "meta_inclination": 74.0116,
        "meta_ra_of_asc_node": 45.8877,
        "meta_arg_of_pericenter": 13.0645,
        "meta_mean_anomaly": 49.8256,
        "meta_ephemeris_type": 0,
        "meta_classification_type": "U",
        "meta_norad_cat_id": 35901,
        "meta_element_set_no": 999,
        "meta_rev_at_epoch": 85958,
        "meta_bstar": 0.0032773073,
        "meta_mean_motion_dot": 0.00047347,
        "meta_mean_motion_ddot": 0,
        "tle_line1": "1 35901U 93036AUQ 25335.53821936  .00047347  00000+0  32773-2 0  9992",
        "tle_line2": "2 35901  74.0116  45.8877 0005834  13.0645  49.8256 15.05425838859587"
      },
      "geometry": {
        "type": "Point",
        "coordinates": [
          92.22180053725397,
          69.77812438549633
        ]
      }
    },
    {
      "type": "Feature",
      "properties": {
        "norad_id": 35902,
        "name": "COSMOS 2251 DEB",
        "group": "cosmos-2251-debris",
        "lat": 22.21276206321358,
        "lon": -102.57654831091726,
        "alt_km": 731.6113461025698,
        "timestamp": "2025-12-03T20:47:58.622713+00:00",
        "meta_object_name": "COSMOS 2251 DEB",
        "meta_object_id": "1993-036AUR",
        "meta_epoch": "2025-12-01T03:04:00.207552",
        "meta_mean_motion": 14.26791124,
        "meta_eccentricity": 0.01016301,
        "meta_inclination": 73.9836,
        "meta_ra_of_asc_node": 255.6555,
        "meta_arg_of_pericenter": 12.6385,
        "meta_mean_anomaly": 347.7274,
        "meta_ephemeris_type": 0,
        "meta_classification_type": "U",
        "meta_norad_cat_id": 35902,
        "meta_element_set_no": 999,
        "meta_rev_at_epoch": 60964,
        "meta_bstar": 0.0014097892,
        "meta_mean_motion_dot": 3.584e-05,
        "meta_mean_motion_ddot": 0,
        "tle_line1": "1 35902U 93036AUR 25335.12778018  .00003584  00000+0  14098-2 0  9995",
        "tle_line2": "2 35902  73.9836 255.6555 0101630  12.6385 347.7274 14.26791124609642"
      },
      "geometry": {
        "type": "Point",
        "coordinates": [
          -102.57654831091726,
          22.21276206321358
        ]
      }
    },
    {
      "type": "Feature",
      "properties": {
        "norad_id": 35905,
        "name": "COSMOS 2251 DEB",
        "group": "cosmos-2251-debris",
        "lat": -14.768884802735602,
        "lon": 53.151685585828304,
        "alt_km": 601.9780386063958,
        "timestamp": "2025-12-03T20:47:58.622724+00:00",
        "meta_object_name": "COSMOS 2251 DEB",
        "meta_object_id": "1993-036AUU",
        "meta_epoch": "2025-12-03T10:18:42.782976",
        "meta_mean_motion": 14.98799352,
        "meta_eccentricity": 0.0090991,
        "meta_inclination": 74.0329,
        "meta_ra_of_asc_node": 229.7091,
        "meta_arg_of_pericenter": 312.0249,
        "meta_mean_anomaly": 47.3216,
        "meta_ephemeris_type": 0,
        "meta_classification_type": "U",
        "meta_norad_cat_id": 35905,
        "meta_element_set_no": 999,
        "meta_rev_at_epoch": 88443,
        "meta_bstar": 0.0008098,
        "meta_mean_motion_dot": 0.00010615,
        "meta_mean_motion_ddot": 0,
        "tle_line1": "1 35905U 93036AUU 25337.42966184  .00010615  00000+0  80980-3 0  9993",
        "tle_line2": "2 35905  74.0329 229.7091 0090991 312.0249  47.3216 14.98799352884435"
      },
      "geometry": {
        "type": "Point",
        "coordinates": [
          53.151685585828304,
          -14.768884802735602
        ]
      }
    },
    {
      "type": "Feature",
      "properties": {
        "norad_id": 35959,
        "name": "COSMOS 2251 DEB",
        "group": "cosmos-2251-debris",
        "lat": -52.774639134399685,
        "lon": 170.4484947983139,
        "alt_km": 799.7318685875334,
        "timestamp": "2025-12-03T20:47:58.622734+00:00",
        "meta_object_name": "COSMOS 2251 DEB",
        "meta_object_id": "1993-036AUZ",
        "meta_epoch": "2025-12-03T09:39:32.961312",
        "meta_mean_motion": 14.34124856,
        "meta_eccentricity": 0.0021207,
        "meta_inclination": 74.0321,
        "meta_ra_of_asc_node": 329.1579,
        "meta_arg_of_pericenter": 52.6115,
        "meta_mean_anomaly": 307.6963,
        "meta_ephemeris_type": 0,
        "meta_classification_type": "U",
        "meta_norad_cat_id": 35959,
        "meta_element_set_no": 999,
        "meta_rev_at_epoch": 84794,
        "meta_bstar": 0.00017921,
        "meta_mean_motion_dot": 4.77e-06,
        "meta_mean_motion_ddot": 0,
        "tle_line1": "1 35959U 93036AUZ 25337.40246483  .00000477  00000+0  17921-3 0  9993",
        "tle_line2": "2 35959  74.0321 329.1579 0021207  52.6115 307.6963 14.34124856847942"
      },
      "geometry": {
        "type": "Point",
        "coordinates": [
          170.4484947983139,
          -52.774639134399685
        ]
      }
    },
    {
      "type": "Feature",
      "properties": {
        "norad_id": 35961,
        "name": "COSMOS 2251 DEB",
        "group": "cosmos-2251-debris",
        "lat": 3.745864803623592,
        "lon": -139.1330010556137,
        "alt_km": 999.1346191540042,
        "timestamp": "2025-12-03T20:47:58.622744+00:00",
        "meta_object_name": "COSMOS 2251 DEB",
        "meta_object_id": "1993-036AVB",
        "meta_epoch": "2025-11-29T09:08:47.173056",
        "meta_mean_motion": 14.05319505,
        "meta_eccentricity": 0.01924432,
        "meta_inclination": 73.9254,
        "meta_ra_of_asc_node": 227.671,
        "meta_arg_of_pericenter": 163.9834,
        "meta_mean_anomaly": 196.7506,
        "meta_ephemeris_type": 0,
        "meta_classification_type": "U",
        "meta_norad_cat_id": 35961,
        "meta_element_set_no": 999,
        "meta_rev_at_epoch": 62494,
        "meta_bstar": 0.00062484461,
        "meta_mean_motion_dot": 1.171e-05,
        "meta_mean_motion_ddot": 0,
        "tle_line1": "1 35961U 93036AVB 25333.38110154  .00001171  00000+0  62484-3 0  9990",
        "tle_line2": "2 35961  73.9254 227.6710 0192443 163.9834 196.7506 14.05319505624940"
      },
      "geometry": {
        "type": "Point",
        "coordinates": [
          -139.1330010556137,
          3.745864803623592
        ]
      }
    },
    {
      "type": "Feature",
      "properties": {
        "norad_id": 35979,
        "name": "COSMOS 2251 DEB",
        "group": "cosmos-2251-debris",
        "lat": -24.86552463328883,
        "lon": 83.37552562008561,
        "alt_km": 693.3066789115446,
        "timestamp": "2025-12-03T20:47:58.622755+00:00",
        "meta_object_name": "COSMOS 2251 DEB",
        "meta_object_id": "1993-036AVV",
        "meta_epoch": "2025-12-03T12:31:35.824224",
        "meta_mean_motion": 14.74433197,
        "meta_eccentricity": 0.0058695,
        "meta_inclination": 74.0111,
        "meta_ra_of_asc_node": 256.413,
        "meta_arg_of_pericenter": 30.7262,
        "meta_mean_anomaly": 146.1139,
        "meta_ephemeris_type": 0,
        "meta_classification_type": "U",
        "meta_norad_cat_id": 35979,
        "meta_element_set_no": 999,
        "meta_rev_at_epoch": 88497,
        "meta_bstar": 0.0015649,
        "meta_mean_motion_dot": 0.00010665,
        "meta_mean_motion_ddot": 0,
        "tle_line1": "1 35979U 93036AVV 25337.52194241  .00010665  00000+0  15649-2 0  9996",
        "tle_line2": "2 35979  74.0111 256.4130 0058695  30.7262 146.1139 14.74433197884977"
      },
      "geometry": {
        "type": "Point",
        "coordinates": [
          83.37552562008561,
          -24.86552463328883
        ]
      }
    },
    {
      "type": "Feature",
      "properties": {
        "norad_id": 35980,
        "name": "COSMOS 2251 DEB",
        "group": "cosmos-2251-debris",
        "lat": -32.156595254427586,
        "lon": -29.8241053275532,
        "alt_km": 683.703235708299,
        "timestamp": "2025-12-03T20:47:58.622765+00:00",
        "meta_object_name": "COSMOS 2251 DEB",
        "meta_object_id": "1993-036AVW",
        "meta_epoch": "2025-12-02T19:08:08.015136",
        "meta_mean_motion": 14.59062146,
        "meta_eccentricity": 0.00537712,
        "meta_inclination": 73.91,
        "meta_ra_of_asc_node": 141.7735,
        "meta_arg_of_pericenter": 277.5645,
        "meta_mean_anomaly": 81.9413,
        "meta_ephemeris_type": 0,
        "meta_classification_type": "U",
        "meta_norad_cat_id": 35980,
        "meta_element_set_no": 999,
        "meta_rev_at_epoch": 61341,
        "meta_bstar": 0.002036555,
        "meta_mean_motion_dot": 9.752e-05,
        "meta_mean_motion_ddot": 0,
        "tle_line1": "1 35980U 93036AVW 25336.79731499  .00009752  00000+0  20366-2 0  9995",
        "tle_line2": "2 35980  73.9100 141.7735 0053771 277.5645  81.9413 14.59062146613413"
      },
      "geometry": {
        "type": "Point",
        "coordinates": [
          -29.8241053275532,
          -32.156595254427586
        ]
      }
    }
  ]
}